{"type":"FeatureCollection", "name":"StreetLight_100","features":[{"type":"Feature","geometry":{"type":"Point","coordinates":[117.347834223691,40.220288908901]},"properties":{"sourceIndex":0,"displayIndex":1,"id":"9c79bd54-16e3-40cf-b6cf-69263a54f7db","angle":108.7,"height":8.0,"type":"1","roadSecId":"698b2bc3-e505-409b-834c-2653ce9bb4b4","startStake":4030.451,"sourceZ":197.577298}},{"type":"Feature","geometry":{"type":"Point","coordinates":[117.348254357432,40.221248927545]},"properties":{"sourceIndex":3,"displayIndex":2,"id":"b94d1210-8b48-4c76-91ae-252d3d5a532d","angle":108.852,"height":8.0,"type":"1","roadSecId":"698b2bc3-e505-409b-834c-2653ce9bb4b4","startStake":3918.041,"sourceZ":198.498784}},{"type":"Feature","geometry":{"type":"Point","coordinates":[117.34997325747,40.230075335316]},"properties":{"sourceIndex":5,"displayIndex":3,"id":"deb5223e-7645-44fd-860f-0159c83f2ae5","angle":257.482,"height":8.0,"type":"1","roadSecId":"88a2a10e-d66e-4747-a6a9-28ed4c884289","startStake":2911.04,"sourceZ":209.264732}},{"type":"Feature","geometry":{"type":"Point","coordinates":[117.34971912586,40.230300726419]},"properties":{"sourceIndex":8,"displayIndex":4,"id":"500983d1-4346-4fd6-982d-573905aac207","angle":75.094,"height":8.0,"type":"1","roadSecId":"88a2a10e-d66e-4747-a6a9-28ed4c884289","startStake":2881.606,"sourceZ":209.750666}},{"type":"Feature","geometry":{"type":"Point","coordinates":[117.349628687089,40.230561375668]},"properties":{"sourceIndex":10,"displayIndex":5,"id":"4b094f2c-b8e7-451f-86fc-6b8f1e4230d1","angle":74.444,"height":8.0,"type":"1","roadSecId":"88a2a10e-d66e-4747-a6a9-28ed4c884289","startStake":2851.551,"sourceZ":210.247567}},{"type":"Feature","geometry":{"type":"Point","coordinates":[117.349630379385,40.231084698223]},"properties":{"sourceIndex":13,"displayIndex":6,"id":"5b6743d7-3647-4105-9828-0f89a00be926","angle":251.013,"height":8.0,"type":"1","roadSecId":"88a2a10e-d66e-4747-a6a9-28ed4c884289","startStake":2795.984,"sourceZ":211.410557}},{"type":"Feature","geometry":{"type":"Point","coordinates":[117.341609794158,40.254871127482]},"properties":{"sourceIndex":15,"displayIndex":7,"id":"929393a9-cdee-4fa2-a850-ada2cf63b9c4","angle":275.782,"height":8.0,"type":"1","roadSecId":"88a2a10e-d66e-4747-a6a9-28ed4c884289","startStake":33.84,"sourceZ":271.41359}},{"type":"Feature","geometry":{"type":"Point","coordinates":[117.341461401313,40.255157273621]},"properties":{"sourceIndex":18,"displayIndex":8,"id":"12912922-2419-4aac-af5d-c5ddf2d4aa34","angle":95.566,"height":8.0,"type":"1","roadSecId":"88a2a10e-d66e-4747-a6a9-28ed4c884289","startStake":3.528,"sourceZ":272.442853}},{"type":"Feature","geometry":{"type":"Point","coordinates":[117.348931473628,40.220655106459]},"properties":{"sourceIndex":21,"displayIndex":9,"id":"18f4c595-e937-42b6-bc7b-d21d676ae58c","angle":288.418,"height":8.0,"type":"1","roadSecId":"23735156-249c-4e61-9be4-4aa31ce00aa6","startStake":1968.53,"sourceZ":198.187533}},{"type":"Feature","geometry":{"type":"Point","coordinates":[117.348657298633,40.22003997009]},"properties":{"sourceIndex":23,"displayIndex":10,"id":"415da364-5eda-401b-af52-d09166c5a570","angle":288.651,"height":8.0,"type":"1","roadSecId":"23735156-249c-4e61-9be4-4aa31ce00aa6","startStake":1896.383,"sourceZ":197.620791}},{"type":"Feature","geometry":{"type":"Point","coordinates":[117.35037259908,40.230501047624]},"properties":{"sourceIndex":26,"displayIndex":11,"id":"fd8a9e99-c703-4134-8121-e7cf27ce3d91","angle":75.707,"height":8.0,"type":"1","roadSecId":"045d1c71-9ed6-4401-a844-3df268921fcc","startStake":3089.785,"sourceZ":210.325291}},{"type":"Feature","geometry":{"type":"Point","coordinates":[117.35046193845,40.230795897568]},"properties":{"sourceIndex":28,"displayIndex":12,"id":"cfb6e0d6-ca60-408d-8281-6f02c1114445","angle":255.707,"height":8.0,"type":"1","roadSecId":"045d1c71-9ed6-4401-a844-3df268921fcc","startStake":3119.695,"sourceZ":210.841752}},{"type":"Feature","geometry":{"type":"Point","coordinates":[117.350183565139,40.231023533465]},"properties":{"sourceIndex":31,"displayIndex":13,"id":"aa4251af-c3a7-4f90-b2b6-215d3777115f","angle":72.541,"height":8.0,"type":"1","roadSecId":"045d1c71-9ed6-4401-a844-3df268921fcc","startStake":3150.37,"sourceZ":211.371374}},{"type":"Feature","geometry":{"type":"Point","coordinates":[117.350257841653,40.23131400726]},"properties":{"sourceIndex":33,"displayIndex":14,"id":"cb1452d1-ee99-4911-b916-9ea85ed33e38","angle":252.541,"height":8.0,"type":"1","roadSecId":"045d1c71-9ed6-4401-a844-3df268921fcc","startStake":3179.304,"sourceZ":211.871035}},{"type":"Feature","geometry":{"type":"Point","coordinates":[117.34206201065,40.254907706019]},"properties":{"sourceIndex":36,"displayIndex":15,"id":"1a486d61-6adc-494a-ad7a-0232148c17c5","angle":276.532,"height":8.0,"type":"1","roadSecId":"045d1c71-9ed6-4401-a844-3df268921fcc","startStake":5934.653,"sourceZ":272.124708}},{"type":"Feature","geometry":{"type":"Point","coordinates":[117.377560129439,40.291985476992]},"properties":{"sourceIndex":39,"displayIndex":16,"id":"4e855184-f27a-4195-ba11-31d9c9705610","angle":318.314,"height":8.0,"type":"1","roadSecId":"dc879bc3-dd59-428a-8a41-cfd238d43326","startStake":5325.167,"sourceZ":376.0}},{"type":"Feature","geometry":{"type":"Point","coordinates":[117.377148044765,40.291929868869]},"properties":{"sourceIndex":41,"displayIndex":17,"id":"0c358a8d-d3bf-420d-9700-fbf1d5e442d6","angle":138.314,"height":8.0,"type":"1","roadSecId":"dc879bc3-dd59-428a-8a41-cfd238d43326","startStake":5294.813,"sourceZ":375.349892}},{"type":"Feature","geometry":{"type":"Point","coordinates":[117.376788075137,40.291463987473]},"properties":{"sourceIndex":44,"displayIndex":18,"id":"643efd42-8603-4193-9f38-097d9310ad3c","angle":318.314,"height":8.0,"type":"1","roadSecId":"dc879bc3-dd59-428a-8a41-cfd238d43326","startStake":5237.629,"sourceZ":374.094313}},{"type":"Feature","geometry":{"type":"Point","coordinates":[117.342176302931,40.255713961274]},"properties":{"sourceIndex":46,"displayIndex":19,"id":"0c593a04-14cc-4b48-8331-fb92288970f2","angle":276.922,"height":8.0,"type":"1","roadSecId":"4a51b56d-7458-481c-9dc5-668cb5686922","startStake":106.599,"sourceZ":274.211053}},{"type":"Feature","geometry":{"type":"Point","coordinates":[117.342149557513,40.255444740706]},"properties":{"sourceIndex":49,"displayIndex":20,"id":"39210d56-ae7c-444a-9d9d-b39cea041af6","angle":276.922,"height":8.0,"type":"1","roadSecId":"4a51b56d-7458-481c-9dc5-668cb5686922","startStake":76.653,"sourceZ":273.495677}},{"type":"Feature","geometry":{"type":"Point","coordinates":[117.341681036416,40.255410948415]},"properties":{"sourceIndex":52,"displayIndex":21,"id":"1362cea5-9b36-4afb-a06e-04bfe3622c20","angle":275.514,"height":8.0,"type":"1","roadSecId":"6cb2f3e1-4a38-4f4f-87a4-6eafc5b42769","startStake":5296.401,"sourceZ":273.0267}},{"type":"Feature","geometry":{"type":"Point","coordinates":[117.341716192774,40.25568184635]},"properties":{"sourceIndex":54,"displayIndex":22,"id":"46301257-1237-4fdc-90c0-64b391b67a34","angle":275.514,"height":8.0,"type":"1","roadSecId":"6cb2f3e1-4a38-4f4f-87a4-6eafc5b42769","startStake":5266.172,"sourceZ":273.634317}},{"type":"Feature","geometry":{"type":"Point","coordinates":[117.341750766368,40.255948999581]},"properties":{"sourceIndex":57,"displayIndex":23,"id":"8916f56f-d9ce-4cda-a370-77b6bcfaa6bc","angle":275.514,"height":8.0,"type":"1","roadSecId":"6cb2f3e1-4a38-4f4f-87a4-6eafc5b42769","startStake":5236.362,"sourceZ":274.23349}},{"type":"Feature","geometry":{"type":"Point","coordinates":[117.375853257231,40.291643260757]},"properties":{"sourceIndex":59,"displayIndex":24,"id":"f444b336-00e6-45b9-949a-c7b7604d6a5b","angle":138.211,"height":8.0,"type":"1","roadSecId":"51c551ef-859a-4fc0-bd71-b511641b0599","startStake":138.112,"sourceZ":375.945389}},{"type":"Feature","geometry":{"type":"Point","coordinates":[117.376437379735,40.291854788136]},"properties":{"sourceIndex":62,"displayIndex":25,"id":"588c1183-4d9d-4943-883b-4045a2c6ab50","angle":318.211,"height":8.0,"type":"1","roadSecId":"51c551ef-859a-4fc0-bd71-b511641b0599","startStake":85.361,"sourceZ":376.990861}},{"type":"Feature","geometry":{"type":"Point","coordinates":[117.376699039115,40.292034329927]},"properties":{"sourceIndex":64,"displayIndex":26,"id":"5445a806-8ec6-40a0-9be1-459df98e3c62","angle":318.211,"height":8.0,"type":"1","roadSecId":"51c551ef-859a-4fc0-bd71-b511641b0599","startStake":55.487,"sourceZ":377.583364}},{"type":"Feature","geometry":{"type":"Point","coordinates":[117.376791748201,40.292292645049]},"properties":{"sourceIndex":67,"displayIndex":27,"id":"1bdbd385-7a8a-4a17-b2ed-488af9be1378","angle":138.211,"height":8.0,"type":"1","roadSecId":"51c551ef-859a-4fc0-bd71-b511641b0599","startStake":30.564,"sourceZ":378.077833}},{"type":"Feature","geometry":{"type":"Point","coordinates":[117.390006026751,40.380916709019]},"properties":{"sourceIndex":70,"displayIndex":28,"id":"e9c372eb-8d50-41aa-b65c-4eb8014e4f17","angle":82.491,"height":8.0,"type":"1","roadSecId":"f14408ef-3b07-42cf-b396-fc9f6af07ef0","startStake":8600.243,"sourceZ":559.951744}},{"type":"Feature","geometry":{"type":"Point","coordinates":[117.389941898085,40.381223754064]},"properties":{"sourceIndex":72,"displayIndex":29,"id":"a3251c1c-1948-4f9d-bc85-5f13da528141","angle":82.491,"height":8.0,"type":"1","roadSecId":"f14408ef-3b07-42cf-b396-fc9f6af07ef0","startStake":8634.754,"sourceZ":560.48221}},{"type":"Feature","geometry":{"type":"Point","coordinates":[117.390025140442,40.381705091218]},"properties":{"sourceIndex":75,"displayIndex":30,"id":"7a1b17b0-e84e-4edf-9d36-06cbc47a0879","angle":260.805,"height":8.0,"type":"1","roadSecId":"f14408ef-3b07-42cf-b396-fc9f6af07ef0","startStake":8686.882,"sourceZ":561.283979}},{"type":"Feature","geometry":{"type":"Point","coordinates":[117.389479460509,40.384607812658]},"properties":{"sourceIndex":77,"displayIndex":31,"id":"ea24f387-a818-4c25-bbe9-554d8c98cd16","angle":264.007,"height":8.0,"type":"1","roadSecId":"f14408ef-3b07-42cf-b396-fc9f6af07ef0","startStake":9012.482,"sourceZ":566.29322}},{"type":"Feature","geometry":{"type":"Point","coordinates":[117.389264358323,40.384877848339]},"properties":{"sourceIndex":80,"displayIndex":32,"id":"9ca7ed00-fed0-40d2-b881-5e756e859cf3","angle":82.491,"height":8.0,"type":"1","roadSecId":"f14408ef-3b07-42cf-b396-fc9f6af07ef0","startStake":9044.534,"sourceZ":566.785825}},{"type":"Feature","geometry":{"type":"Point","coordinates":[117.389244470802,40.385144416949]},"properties":{"sourceIndex":82,"displayIndex":33,"id":"a1ba2a97-783b-4d6f-ab2b-3a853e9574f9","angle":86.884,"height":8.0,"type":"1","roadSecId":"f14408ef-3b07-42cf-b396-fc9f6af07ef0","startStake":9074.111,"sourceZ":567.241308}},{"type":"Feature","geometry":{"type":"Point","coordinates":[117.389248329552,40.385696093803]},"properties":{"sourceIndex":85,"displayIndex":34,"id":"21093dc5-b96c-46a3-a355-17a8a542011e","angle":89.914,"height":8.0,"type":"1","roadSecId":"f14408ef-3b07-42cf-b396-fc9f6af07ef0","startStake":9134.839,"sourceZ":567.325}},{"type":"Feature","geometry":{"type":"Point","coordinates":[117.514607733459,40.489815622317]},"properties":{"sourceIndex":88,"displayIndex":35,"id":"45009fff-cc09-4ad2-917e-5d22dd2a8be6","angle":319.761,"height":8.0,"type":"1","roadSecId":"96d4b6ff-52ad-448c-b583-d3dfa15e14af","startStake":26464.237,"sourceZ":675.539135}},{"type":"Feature","geometry":{"type":"Point","coordinates":[117.510948947788,40.487541967932]},"properties":{"sourceIndex":90,"displayIndex":36,"id":"75a83bf8-a09f-4bbb-af7c-b1672f109430","angle":320.412,"height":8.0,"type":"1","roadSecId":"1eabff8c-2de2-4814-b0d7-ed6dff51e063","startStake":26064.488,"sourceZ":673.807}},{"type":"Feature","geometry":{"type":"Point","coordinates":[117.505450842532,40.484140909879]},"properties":{"sourceIndex":93,"displayIndex":37,"id":"6b96ebd3-c639-4b13-9906-ab3ac6ca45a3","angle":320.412,"height":8.0,"type":"1","roadSecId":"1eabff8c-2de2-4814-b0d7-ed6dff51e063","startStake":25464.532,"sourceZ":666.282359}},{"type":"Feature","geometry":{"type":"Point","coordinates":[117.501785750752,40.481873383554]},"properties":{"sourceIndex":95,"displayIndex":38,"id":"7d423099-9f08-4a23-bbad-29df89472fd9","angle":320.412,"height":8.0,"type":"1","roadSecId":"1eabff8c-2de2-4814-b0d7-ed6dff51e063","startStake":25064.561,"sourceZ":660.642769}},{"type":"Feature","geometry":{"type":"Point","coordinates":[117.511803788253,40.488476312025]},"properties":{"sourceIndex":98,"displayIndex":39,"id":"8111ce9e-c40b-4b78-be98-53bea9585b34","angle":140.412,"height":8.0,"type":"1","roadSecId":"0cce8899-81d7-4f1f-82f1-e831fede93f6","startStake":26186.265,"sourceZ":673.807}},{"type":"Feature","geometry":{"type":"Point","coordinates":[117.50813824742,40.486208991587]},"properties":{"sourceIndex":100,"displayIndex":40,"id":"ff551669-a491-4fe6-ac96-a75bb60db22f","angle":140.412,"height":8.0,"type":"1","roadSecId":"5f0842ed-634a-4f4f-864b-c6a459ee8d44","startStake":25786.294,"sourceZ":670.818373}},{"type":"Feature","geometry":{"type":"Point","coordinates":[117.502640392122,40.482807797533]},"properties":{"sourceIndex":103,"displayIndex":41,"id":"3a841aa5-2eb6-411d-990f-bc074df7c79e","angle":140.412,"height":8.0,"type":"1","roadSecId":"5f0842ed-634a-4f4f-864b-c6a459ee8d44","startStake":25186.338,"sourceZ":662.359729}},{"type":"Feature","geometry":{"type":"Point","coordinates":[117.516844626902,40.491588794785]},"properties":{"sourceIndex":106,"displayIndex":42,"id":"f1c65cd1-6a0a-4bac-9aac-1da9f22e077a","angle":311.564,"height":8.0,"type":"1","roadSecId":"6f389173-17b8-4881-a530-afc4ee168965","startStake":26735.684,"sourceZ":677.125}},{"type":"Feature","geometry":{"type":"Point","coordinates":[117.486106317489,40.454303777957]},"properties":{"sourceIndex":108,"displayIndex":43,"id":"5bee014a-6b6e-4b3b-bb14-b028b5bf401d","angle":89.328,"height":8.0,"type":"1","roadSecId":"81c030d5-ea4b-4a29-977a-a5a06bef4747","startStake":21511.319,"sourceZ":637.907639}},{"type":"Feature","geometry":{"type":"Point","coordinates":[117.486531270774,40.453599295785]},"properties":{"sourceIndex":111,"displayIndex":44,"id":"ae715cfb-9411-4000-9375-1f86f1fb4bb8","angle":269.328,"height":8.0,"type":"1","roadSecId":"1bc28957-2a23-4e2b-8eac-5acb78b2b1d5","startStake":21432.867,"sourceZ":636.629442}},{"type":"Feature","geometry":{"type":"Point","coordinates":[117.48626335442,40.448342243919]},"properties":{"sourceIndex":113,"displayIndex":45,"id":"1084e1ae-2a88-4381-99de-7c3a44d4705f","angle":278.617,"height":8.0,"type":"1","roadSecId":"1bc28957-2a23-4e2b-8eac-5acb78b2b1d5","startStake":20851.362,"sourceZ":625.208432}},{"type":"Feature","geometry":{"type":"Point","coordinates":[117.486112819114,40.456125262263]},"properties":{"sourceIndex":116,"displayIndex":46,"id":"a350ef92-ef0e-4660-a3a8-1816e761367c","angle":89.328,"height":8.0,"type":"1","roadSecId":"bcface71-fd63-4f48-bb46-8f99b5ce8bc5","startStake":21713.58,"sourceZ":640.272}},{"type":"Feature","geometry":{"type":"Point","coordinates":[117.486079740205,40.450689105777]},"properties":{"sourceIndex":118,"displayIndex":47,"id":"c28279bf-af45-44b1-80e2-5380cdc48455","angle":98.617,"height":8.0,"type":"1","roadSecId":"81c030d5-ea4b-4a29-977a-a5a06bef4747","startStake":21106.392,"sourceZ":630.269564}},{"type":"Feature","geometry":{"type":"Point","coordinates":[117.485082175131,40.446753088951]},"properties":{"sourceIndex":121,"displayIndex":48,"id":"8af5bb6e-e114-418e-8b7b-4b4226e5e93c","angle":116.906,"height":8.0,"type":"1","roadSecId":"81c030d5-ea4b-4a29-977a-a5a06bef4747","startStake":20652.771,"sourceZ":622.24357}},{"type":"Feature","geometry":{"type":"Point","coordinates":[117.474467088008,40.43752724899]},"properties":{"sourceIndex":124,"displayIndex":49,"id":"7f3f11c0-6555-4554-b0a8-61b24be83a10","angle":317.654,"height":8.0,"type":"1","roadSecId":"1bc28957-2a23-4e2b-8eac-5acb78b2b1d5","startStake":19272.312,"sourceZ":625.686753}},{"type":"Feature","geometry":{"type":"Point","coordinates":[117.471119310852,40.434999146671]},"properties":{"sourceIndex":126,"displayIndex":50,"id":"6d5abffc-c480-41fd-b70d-f2789b06fda1","angle":301.519,"height":8.0,"type":"1","roadSecId":"1bc28957-2a23-4e2b-8eac-5acb78b2b1d5","startStake":18868.446,"sourceZ":627.371838}},{"type":"Feature","geometry":{"type":"Point","coordinates":[117.468231608007,40.43012017578]},"properties":{"sourceIndex":129,"displayIndex":51,"id":"5f2448c3-15f5-43d3-b33b-18a28e0330f2","angle":283.63,"height":8.0,"type":"1","roadSecId":"1bc28957-2a23-4e2b-8eac-5acb78b2b1d5","startStake":18263.924,"sourceZ":630.013734}},{"type":"Feature","geometry":{"type":"Point","coordinates":[117.467136292959,40.426589117387]},"properties":{"sourceIndex":131,"displayIndex":52,"id":"21c04c1c-059e-413f-9ebd-cb2f09e9c902","angle":284.164,"height":8.0,"type":"1","roadSecId":"1bc28957-2a23-4e2b-8eac-5acb78b2b1d5","startStake":17861.142,"sourceZ":631.774203}},{"type":"Feature","geometry":{"type":"Point","coordinates":[117.475278617133,40.438500774366]},"properties":{"sourceIndex":134,"displayIndex":53,"id":"b12648f7-efde-48cf-a218-eeb514ccae70","angle":137.654,"height":8.0,"type":"1","roadSecId":"81c030d5-ea4b-4a29-977a-a5a06bef4747","startStake":19395.841,"sourceZ":625.184634}},{"type":"Feature","geometry":{"type":"Point","coordinates":[117.470286577371,40.43469394669]},"properties":{"sourceIndex":137,"displayIndex":54,"id":"288bab3e-866b-4251-a109-e5cde906ee42","angle":121.519,"height":8.0,"type":"1","roadSecId":"81c030d5-ea4b-4a29-977a-a5a06bef4747","startStake":18802.39,"sourceZ":627.660483}},{"type":"Feature","geometry":{"type":"Point","coordinates":[117.468262285285,40.431459274212]},"properties":{"sourceIndex":139,"displayIndex":55,"id":"6222e6c6-284f-4650-aa19-0b2bd03e2c06","angle":103.63,"height":8.0,"type":"1","roadSecId":"81c030d5-ea4b-4a29-977a-a5a06bef4747","startStake":18408.876,"sourceZ":629.379949}},{"type":"Feature","geometry":{"type":"Point","coordinates":[117.477039029014,40.439698346502]},"properties":{"sourceIndex":142,"displayIndex":56,"id":"b3891250-aac2-4085-acef-ee91162bb5bd","angle":137.654,"height":8.0,"type":"1","roadSecId":"81c030d5-ea4b-4a29-977a-a5a06bef4747","startStake":19595.824,"sourceZ":624.372541}},{"type":"Feature","geometry":{"type":"Point","coordinates":[117.457441573833,40.416052405336]},"properties":{"sourceIndex":144,"displayIndex":57,"id":"2828ba34-4529-4486-b574-dac52ab2cd1f","angle":328.135,"height":8.0,"type":"1","roadSecId":"ee6fa74e-d95f-418a-be19-327a5da6993c","startStake":16388.809,"sourceZ":631.024851}},{"type":"Feature","geometry":{"type":"Point","coordinates":[117.45106157609,40.413726142518]},"properties":{"sourceIndex":147,"displayIndex":58,"id":"e6495568-87f3-45f2-842f-57a100077fcb","angle":334.801,"height":8.0,"type":"1","roadSecId":"ee6fa74e-d95f-418a-be19-327a5da6993c","startStake":15790.576,"sourceZ":627.426456}},{"type":"Feature","geometry":{"type":"Point","coordinates":[117.446826109444,40.412216847713]},"properties":{"sourceIndex":149,"displayIndex":59,"id":"cd695016-8d95-44a1-8a3a-1c50bbd0bd2b","angle":334.801,"height":8.0,"type":"1","roadSecId":"ee6fa74e-d95f-418a-be19-327a5da6993c","startStake":15393.928,"sourceZ":622.578127}},{"type":"Feature","geometry":{"type":"Point","coordinates":[117.442664200225,40.410510723217]},"properties":{"sourceIndex":152,"displayIndex":60,"id":"de2752a2-5e0f-40ae-9e62-d759f36b5416","angle":327.141,"height":8.0,"type":"1","roadSecId":"ee6fa74e-d95f-418a-be19-327a5da6993c","startStake":14990.428,"sourceZ":615.280153}},{"type":"Feature","geometry":{"type":"Point","coordinates":[117.456543479211,40.41603727767]},"properties":{"sourceIndex":155,"displayIndex":61,"id":"14754c54-123d-4e40-8295-cb8b511723a0","angle":154.42,"height":8.0,"type":"1","roadSecId":"2d6faaf4-d5cd-42b0-a8a1-3608a83e294e","startStake":16320.788,"sourceZ":630.615725}},{"type":"Feature","geometry":{"type":"Point","coordinates":[117.452275613824,40.414510084286]},"properties":{"sourceIndex":157,"displayIndex":62,"id":"778d87b5-e508-4c97-9fdc-d60ecc6b671d","angle":154.801,"height":8.0,"type":"1","roadSecId":"2d6faaf4-d5cd-42b0-a8a1-3608a83e294e","startStake":15920.698,"sourceZ":628.20919}},{"type":"Feature","geometry":{"type":"Point","coordinates":[117.445869303123,40.412226926257]},"properties":{"sourceIndex":160,"displayIndex":63,"id":"8508285b-2c0e-4e06-916f-ecc2f90a960d","angle":154.801,"height":8.0,"type":"1","roadSecId":"2d6faaf4-d5cd-42b0-a8a1-3608a83e294e","startStake":15320.741,"sourceZ":621.286197}},{"type":"Feature","geometry":{"type":"Point","coordinates":[117.442293861889,40.41065184301]},"properties":{"sourceIndex":162,"displayIndex":64,"id":"f68be226-4422-4fbf-afe8-db7643bb5e8c","angle":147.141,"height":8.0,"type":"1","roadSecId":"2d6faaf4-d5cd-42b0-a8a1-3608a83e294e","startStake":14972.374,"sourceZ":614.893794}},{"type":"Feature","geometry":{"type":"Point","coordinates":[117.441909863075,40.41007904758]},"properties":{"sourceIndex":165,"displayIndex":65,"id":"510e806d-d3ba-4a94-ac03-42707ca1a703","angle":327.141,"height":8.0,"type":"1","roadSecId":"ee6fa74e-d95f-418a-be19-327a5da6993c","startStake":14910.662,"sourceZ":613.572176}},{"type":"Feature","geometry":{"type":"Point","coordinates":[117.441660000097,40.410272450143]},"properties":{"sourceIndex":167,"displayIndex":66,"id":"b0d8cb6c-bd49-4705-b289-fab1b460897e","angle":147.141,"height":8.0,"type":"1","roadSecId":"2d6faaf4-d5cd-42b0-a8a1-3608a83e294e","startStake":14904.352,"sourceZ":613.44033}},{"type":"Feature","geometry":{"type":"Point","coordinates":[117.393082515533,40.39243694113]},"properties":{"sourceIndex":170,"displayIndex":67,"id":"d709e105-65b6-45fc-9bfe-089232ba4729","angle":310.531,"height":8.0,"type":"1","roadSecId":"dd4a9c42-e503-4448-a8c4-bf453ff608cc","startStake":9959.041,"sourceZ":552.81564}},{"type":"Feature","geometry":{"type":"Point","coordinates":[117.392990783835,40.392738164432]},"properties":{"sourceIndex":173,"displayIndex":68,"id":"c45aac58-a824-40f7-92ca-954b3a9a9521","angle":131.503,"height":8.0,"type":"1","roadSecId":"14ccd8c7-218b-4daa-a2b3-84ac3984b62e","startStake":9979.073,"sourceZ":552.216869}},{"type":"Feature","geometry":{"type":"Point","coordinates":[117.39119729288,40.390845929096]},"properties":{"sourceIndex":175,"displayIndex":69,"id":"dfd10924-09bf-4186-9c60-e4a83ca25288","angle":119.024,"height":8.0,"type":"1","roadSecId":"516e2509-8622-4a71-874c-e5d063d39747","startStake":9721.949,"sourceZ":558.819}},{"type":"Feature","geometry":{"type":"Point","coordinates":[117.389656729339,40.385385359279]},"properties":{"sourceIndex":178,"displayIndex":70,"id":"ee24357a-d50c-491e-b894-d2b15c2a262e","angle":262.491,"height":8.0,"type":"1","roadSecId":"d509c46d-4e95-4cf7-b713-cc1fb72816c5","startStake":9096.23,"sourceZ":567.325}},{"type":"Feature","geometry":{"type":"Point","coordinates":[117.389437833654,40.386383426735]},"properties":{"sourceIndex":180,"displayIndex":71,"id":"801002fc-90be-4417-aac9-120d45904246","angle":103.811,"height":8.0,"type":"1","roadSecId":"f233d874-7cd5-4cbd-987d-c4f099b4567d","startStake":9205.751,"sourceZ":567.019643}},{"type":"Feature","geometry":{"type":"Point","coordinates":[117.390439481246,40.380606652491]},"properties":{"sourceIndex":183,"displayIndex":72,"id":"f7b0f429-d6d7-44cb-9e2a-18ffba8f6dd1","angle":262.491,"height":8.0,"type":"1","roadSecId":"3222cba7-a70d-4cc6-a7c1-df4aef4ff915","startStake":8561.44,"sourceZ":559.518}},{"type":"Feature","geometry":{"type":"Point","coordinates":[117.390603665889,40.378951522259]},"properties":{"sourceIndex":185,"displayIndex":73,"id":"db86403b-b5ed-48fc-8f2a-45d29962afc1","angle":78.438,"height":8.0,"type":"1","roadSecId":"b21b2d0a-10de-4daf-8735-335b6c0a88aa","startStake":8377.948,"sourceZ":556.785832}},{"type":"Feature","geometry":{"type":"Point","coordinates":[117.391904603388,40.373644897998]},"properties":{"sourceIndex":188,"displayIndex":74,"id":"72b914e7-46c2-42e6-8f3c-bf6c1804905f","angle":78.438,"height":8.0,"type":"1","roadSecId":"5a979da9-60d5-49a5-8ab5-e46d3eb517a1","startStake":7778.458,"sourceZ":543.777404}},{"type":"Feature","geometry":{"type":"Point","coordinates":[117.394218963207,40.368543671147]},"properties":{"sourceIndex":191,"displayIndex":75,"id":"44eed806-a50d-4283-84e9-3b494e11f9eb","angle":68.644,"height":8.0,"type":"1","roadSecId":"5a979da9-60d5-49a5-8ab5-e46d3eb517a1","startStake":7181.767,"sourceZ":532.163642}},{"type":"Feature","geometry":{"type":"Point","coordinates":[117.396691422893,40.363483304542]},"properties":{"sourceIndex":193,"displayIndex":76,"id":"3e1b577c-64fd-4458-8928-59a6bac5518c","angle":76.999,"height":8.0,"type":"1","roadSecId":"5a979da9-60d5-49a5-8ab5-e46d3eb517a1","startStake":6578.052,"sourceZ":520.10104}},{"type":"Feature","geometry":{"type":"Point","coordinates":[117.398147134032,40.358205586329]},"properties":{"sourceIndex":196,"displayIndex":77,"id":"ea3d916a-894a-445d-8bc0-a42a6c52f38e","angle":76.999,"height":8.0,"type":"1","roadSecId":"5a979da9-60d5-49a5-8ab5-e46d3eb517a1","startStake":5979.157,"sourceZ":508.156144}},{"type":"Feature","geometry":{"type":"Point","coordinates":[117.398341235585,40.35460937524]},"properties":{"sourceIndex":198,"displayIndex":78,"id":"4e269940-9781-4b33-9277-9ff7551fc927","angle":92.864,"height":8.0,"type":"1","roadSecId":"5a979da9-60d5-49a5-8ab5-e46d3eb517a1","startStake":5572.667,"sourceZ":500.072809}},{"type":"Feature","geometry":{"type":"Point","coordinates":[117.397469272326,40.349256222854]},"properties":{"sourceIndex":201,"displayIndex":79,"id":"e4034289-97bd-4298-8fab-a483e725f475","angle":99.852,"height":8.0,"type":"1","roadSecId":"5a979da9-60d5-49a5-8ab5-e46d3eb517a1","startStake":4970.741,"sourceZ":488.302812}},{"type":"Feature","geometry":{"type":"Point","coordinates":[117.39102156207,40.377800386334]},"properties":{"sourceIndex":203,"displayIndex":80,"id":"ce5fa5b7-2bbc-48cb-9a20-c34653169e7a","angle":78.438,"height":8.0,"type":"1","roadSecId":"3222cba7-a70d-4cc6-a7c1-df4aef4ff915","startStake":8245.645,"sourceZ":554.330444}},{"type":"Feature","geometry":{"type":"Point","coordinates":[117.392688401264,40.37256077686]},"properties":{"sourceIndex":206,"displayIndex":81,"id":"79984e43-cbe1-40e0-a34d-7ac34194fff6","angle":248.644,"height":8.0,"type":"1","roadSecId":"3222cba7-a70d-4cc6-a7c1-df4aef4ff915","startStake":7644.729,"sourceZ":541.211795}},{"type":"Feature","geometry":{"type":"Point","coordinates":[117.396169138689,40.365867002564]},"properties":{"sourceIndex":209,"displayIndex":82,"id":"8368c986-bf4c-4d36-a537-ca9914e012c8","angle":248.644,"height":8.0,"type":"1","roadSecId":"3222cba7-a70d-4cc6-a7c1-df4aef4ff915","startStake":6844.839,"sourceZ":525.461746}},{"type":"Feature","geometry":{"type":"Point","coordinates":[117.397665566898,40.362454491802]},"properties":{"sourceIndex":211,"displayIndex":83,"id":"5cc28bd3-31f3-4441-913c-6379f27d40b3","angle":256.999,"height":8.0,"type":"1","roadSecId":"3222cba7-a70d-4cc6-a7c1-df4aef4ff915","startStake":6448.37,"sourceZ":517.508413}},{"type":"Feature","geometry":{"type":"Point","coordinates":[117.398770802484,40.357127258865]},"properties":{"sourceIndex":214,"displayIndex":84,"id":"a29b28d5-bae5-4e49-8b6b-e907af4bbee6","angle":272.864,"height":8.0,"type":"1","roadSecId":"3222cba7-a70d-4cc6-a7c1-df4aef4ff915","startStake":5853.833,"sourceZ":505.663893}},{"type":"Feature","geometry":{"type":"Point","coordinates":[117.39872715271,40.353528137649]},"properties":{"sourceIndex":216,"displayIndex":85,"id":"40767977-fa42-44a3-a394-a3253b13aa1a","angle":272.864,"height":8.0,"type":"1","roadSecId":"3222cba7-a70d-4cc6-a7c1-df4aef4ff915","startStake":5454.567,"sourceZ":497.765516}},{"type":"Feature","geometry":{"type":"Point","coordinates":[117.397745475067,40.348179263965]},"properties":{"sourceIndex":219,"displayIndex":86,"id":"247c1226-1d6c-4a0a-99aa-b5cceb1f824b","angle":279.852,"height":8.0,"type":"1","roadSecId":"3222cba7-a70d-4cc6-a7c1-df4aef4ff915","startStake":4857.128,"sourceZ":486.034552}},{"type":"Feature","geometry":{"type":"Point","coordinates":[117.396757664572,40.34659180456]},"properties":{"sourceIndex":222,"displayIndex":87,"id":"a5fa20e2-409c-4b6b-b8e4-bedb0b81a5d2","angle":99.852,"height":8.0,"type":"1","roadSecId":"b5b43ed8-5b37-4f6b-9a99-93794161aa7a","startStake":4668.857,"sourceZ":482.693}},{"type":"Feature","geometry":{"type":"Point","coordinates":[117.396133077397,40.344252942197]},"properties":{"sourceIndex":224,"displayIndex":88,"id":"ca485ffd-4574-44de-b852-42e975c5110a","angle":99.852,"height":8.0,"type":"1","roadSecId":"9c911d7f-070e-4727-adae-2f24713f202b","startStake":4403.861,"sourceZ":472.022433}},{"type":"Feature","geometry":{"type":"Point","coordinates":[117.394547482248,40.338961582711]},"properties":{"sourceIndex":227,"displayIndex":89,"id":"326559b0-9c82-491a-abd8-12b4f8084d4b","angle":108.016,"height":8.0,"type":"1","roadSecId":"9c911d7f-070e-4727-adae-2f24713f202b","startStake":3796.436,"sourceZ":463.857684}},{"type":"Feature","geometry":{"type":"Point","coordinates":[117.392935825911,40.335579435953]},"properties":{"sourceIndex":229,"displayIndex":90,"id":"59e9cc3a-a88d-46c6-9846-ddd95f1df268","angle":108.016,"height":8.0,"type":"1","roadSecId":"9c911d7f-070e-4727-adae-2f24713f202b","startStake":3396.873,"sourceZ":456.903466}},{"type":"Feature","geometry":{"type":"Point","coordinates":[117.389923283711,40.330693333114]},"properties":{"sourceIndex":232,"displayIndex":91,"id":"1a808f2c-a5bd-4a5a-9dd4-d7410fb01f7a","angle":115.77,"height":8.0,"type":"1","roadSecId":"9c911d7f-070e-4727-adae-2f24713f202b","startStake":2794.471,"sourceZ":444.928514}},{"type":"Feature","geometry":{"type":"Point","coordinates":[117.387896794799,40.327442369844]},"properties":{"sourceIndex":234,"displayIndex":92,"id":"42abdd8f-0536-41b8-b147-afeeb52d7c23","angle":109.803,"height":8.0,"type":"1","roadSecId":"9c911d7f-070e-4727-adae-2f24713f202b","startStake":2395.918,"sourceZ":436.96955}},{"type":"Feature","geometry":{"type":"Point","coordinates":[117.385585906795,40.322366626659]},"properties":{"sourceIndex":237,"displayIndex":93,"id":"5840ab17-d01c-4e15-8e9e-5b9ca672b852","angle":89.839,"height":8.0,"type":"1","roadSecId":"9c911d7f-070e-4727-adae-2f24713f202b","startStake":1803.538,"sourceZ":424.944866}},{"type":"Feature","geometry":{"type":"Point","coordinates":[117.395694754161,40.340160609284]},"properties":{"sourceIndex":240,"displayIndex":94,"id":"2f7ff49b-3a30-4be8-9556-4177a067a220","angle":288.016,"height":8.0,"type":"1","roadSecId":"ddd386d1-9fb6-491c-9df9-b55d717dc6c6","startStake":3953.43,"sourceZ":0.0}},{"type":"Feature","geometry":{"type":"Point","coordinates":[117.394139748197,40.336762472409]},"properties":{"sourceIndex":242,"displayIndex":95,"id":"1a0ba6f5-5cc5-442c-afce-17b58cd5d1f6","angle":288.016,"height":8.0,"type":"1","roadSecId":"ddd386d1-9fb6-491c-9df9-b55d717dc6c6","startStake":3553.691,"sourceZ":460.03981}},{"type":"Feature","geometry":{"type":"Point","coordinates":[117.391172551736,40.331860786079]},"properties":{"sourceIndex":245,"displayIndex":96,"id":"54b85949-1a2c-4896-99a1-726582bd858a","angle":295.77,"height":8.0,"type":"1","roadSecId":"ddd386d1-9fb6-491c-9df9-b55d717dc6c6","startStake":2957.542,"sourceZ":448.154338}},{"type":"Feature","geometry":{"type":"Point","coordinates":[117.38914596769,40.328609845796]},"properties":{"sourceIndex":247,"displayIndex":97,"id":"99a50d1a-9d92-4f0c-9ff5-58a28422c238","angle":295.77,"height":8.0,"type":"1","roadSecId":"ddd386d1-9fb6-491c-9df9-b55d717dc6c6","startStake":2557.588,"sourceZ":440.226276}},{"type":"Feature","geometry":{"type":"Point","coordinates":[117.386336394857,40.323660559709]},"properties":{"sourceIndex":250,"displayIndex":98,"id":"609a5db0-b0e2-420a-9809-2d67b40f4f32","angle":289.803,"height":8.0,"type":"1","roadSecId":"ddd386d1-9fb6-491c-9df9-b55d717dc6c6","startStake":1955.963,"sourceZ":428.060659}},{"type":"Feature","geometry":{"type":"Point","coordinates":[117.385737264795,40.320101170498]},"properties":{"sourceIndex":252,"displayIndex":99,"id":"3f2c01bf-3c8a-4999-8bc7-17481966f0c2","angle":89.839,"height":8.0,"type":"1","roadSecId":"ddd386d1-9fb6-491c-9df9-b55d717dc6c6","startStake":1551.996,"sourceZ":420.178542}},{"type":"Feature","geometry":{"type":"Point","coordinates":[117.395296016839,40.367539563829]},"properties":{"sourceIndex":255,"displayIndex":100,"id":"8a2f2399-90c9-4bef-bb7f-fdab0a757bd9","angle":248.644,"height":8.0,"type":"1","roadSecId":"3222cba7-a70d-4cc6-a7c1-df4aef4ff915","startStake":7044.811,"sourceZ":529.470299}}]}